{"type": "FeatureCollection", "features": [ {"type": "Feature", "properties": {"norad_id": 66052, "name": "HRC MONOBLOCK CAMERA", "group": "stations", "lat": 4.02513779614784, "lon": -95.28352124549295, "alt_km": 401.97195865805406, "timestamp": "2025-12-23T11:34:46.979397+00:00", "meta": {"OBJECT_NAME": "HRC MONOBLOCK CAMERA", "OBJECT_ID": "1998-067XR", "EPOCH": "2025-12-22T16:19:14.073600", "MEAN_MOTION": 15.54806882, "ECCENTRICITY": 0.00022738, "INCLINATION": 51.631, "RA_OF_ASC_NODE": 91.9195, "ARG_OF_PERICENTER": 231.7536, "MEAN_ANOMALY": 128.3251, "EPHEMERIS_TYPE": 0, "CLASSIFICATION_TYPE": "U", "NORAD_CAT_ID": 66052, "ELEMENT_SET_NO": 999, "REV_AT_EPOCH": 1038, "BSTAR": 0.00055608481, "MEAN_MOTION_DOT": 0.00037432, "MEAN_MOTION_DDOT": 0}, "tle": {"line1": "1 66052U 98067XR  25356.68002400  .00037432  00000+0  55608-3 0  9995", "line2": "2 66052  51.6310  91.9195 0002273 231.7536 128.3251 15.54806882 10383"}}, "geometry": {"type": "Point", "coordinates": [-95.28352124549295, 4.02513779614784]}}, {"type": "Feature", "properties": {"norad_id": 66174, "name": "HTV-X1", "group": "stations", "lat": -42.48532087646172, "lon": -44.20720807587221, "alt_km": 420.398561522009, "timestamp": "2025-12-23T11:34:46.979407+00:00", "meta": {"OBJECT_NAME": "HTV-X1", "OBJECT_ID": "2025-241A", "EPOCH": "2025-12-22T15:58:44.561856", "MEAN_MOTION": 15.49732869, "ECCENTRICITY": 0.00031542, "INCLINATION": 51.6326, "RA_OF_ASC_NODE": 93.3232, "ARG_OF_PERICENTER": 286.8846, "MEAN_ANOMALY": 73.1797, "EPHEMERIS_TYPE": 0, "CLASSIFICATION_TYPE": "U", "NORAD_CAT_ID": 66174, "ELEMENT_SET_NO": 999, "REV_AT_EPOCH": 51, "BSTAR": 0.00022188304, "MEAN_MOTION_DOT": 0.0001211, "MEAN_MOTION_DDOT": 0}, "tle": {"line1": "1 66174U 25241A   25356.66579354  .00012110  00000+0  22188-3 0  9992", "line2": "2 66174  51.6326  93.3232 0003154 286.8846  73.1797 15.49732869   510"}}, "geometry": {"type": "Point", "coordinates": [-44.20720807587221, -42.48532087646172]}}, {"type": "Feature", "properties": {"norad_id": 66515, "name": "SZ-21 MODULE", "group": "stations", "lat": 41.351383735929005, "lon": 35.547478679856454, "alt_km": 374.2171658234847, "timestamp": "2025-12-23T11:34:46.979416+00:00", "meta": {"OBJECT_NAME": "SZ-21 MODULE", "OBJECT_ID": "2025-246C", "EPOCH": "2025-12-22T06:04:32.826144", "MEAN_MOTION": 15.62957896, "ECCENTRICITY": 0.00052091, "INCLINATION": 41.4776, "RA_OF_ASC_NODE": 317.9924, "ARG_OF_PERICENTER": 311.1717, "MEAN_ANOMALY": 48.8673, "EPHEMERIS_TYPE": 0, "CLASSIFICATION_TYPE": "U", "NORAD_CAT_ID": 66515, "ELEMENT_SET_NO": 999, "REV_AT_EPOCH": 593, "BSTAR": 0.00031521047, "MEAN_MOTION_DOT": 0.00029176, "MEAN_MOTION_DDOT": 0}, "tle": {"line1": "1 66515U 25246C   25356.25315771  .00029176  00000+0  31521-3 0  9993", "line2": "2 66515  41.4776 317.9924 0005209 311.1717  48.8673 15.62957896  5937"}}, "geometry": {"type": "Point", "coordinates": [35.547478679856454, 41.351383735929005]}}, {"type": "Feature", "properties": {"norad_id": 66645, "name": "SHENZHOU-22", "group": "stations", "lat": 29.292497825868946, "lon": -9.094931159101064, "alt_km": 382.7505520267541, "timestamp": "2025-12-23T11:34:46.979425+00:00", "meta": {"OBJECT_NAME": "SHENZHOU-22", "OBJECT_ID": "2025-272A", "EPOCH": "2025-12-22T20:00:27.776448", "MEAN_MOTION": 15.59577421, "ECCENTRICITY": 0.00078985, "INCLINATION": 41.4686, "RA_OF_ASC_NODE": 315.409, "ARG_OF_PERICENTER": 119.6774, "MEAN_ANOMALY": 240.4851, "EPHEMERIS_TYPE": 0, "CLASSIFICATION_TYPE": "U", "NORAD_CAT_ID": 66645, "ELEMENT_SET_NO": 999, "REV_AT_EPOCH": 26550, "BSTAR": 0.00020454, "MEAN_MOTION_DOT": 0.00016458, "MEAN_MOTION_DDOT": 0}, "tle": {"line1": "1 66645U 25272A   25356.83365482  .00016458  00000+0  20454-3 0  9996", "line2": "2 66645  41.4686 315.4090 0007898 119.6774 240.4851 15.59577421265505"}}, "geometry": {"type": "Point", "coordinates": [-9.094931159101064, 29.292497825868946]}}, {"type": "Feature", "properties": {"norad_id": 66664, "name": "SOYUZ-MS 28", "group": "stations", "lat": -42.48535189467773, "lon": -44.20714246368071, "alt_km": 420.3985611053431, "timestamp": "2025-12-23T11:34:46.979434+00:00", "meta": {"OBJECT_NAME": "SOYUZ-MS 28", "OBJECT_ID": "2025-275A", "EPOCH": "2025-12-22T15:58:44.560992", "MEAN_MOTION": 15.49732869, "ECCENTRICITY": 0.0003154, "INCLINATION": 51.6326, "RA_OF_ASC_NODE": 93.3232, "ARG_OF_PERICENTER": 286.8846, "MEAN_ANOMALY": 73.1797, "EPHEMERIS_TYPE": 0, "CLASSIFICATION_TYPE": "U", "NORAD_CAT_ID": 66664, "ELEMENT_SET_NO": 999, "REV_AT_EPOCH": 398, "BSTAR": 0.00022188, "MEAN_MOTION_DOT": 0.0001211, "MEAN_MOTION_DDOT": 0}, "tle": {"line1": "1 66664U 25275A   25356.66579353  .00012110  00000+0  22188-3 0  9992", "line2": "2 66664  51.6326  93.3232 0003154 286.8846  73.1797 15.49732869  3988"}}, "geometry": {"type": "Point", "coordinates": [-44.20714246368071, -42.48535189467773]}}, {"type": "Feature", "properties": {"norad_id": 66906, "name": "1998-067XS", "group": "stations", "lat": -33.24969460557452, "lon": 57.82477587074458, "alt_km": 416.32908674446116, "timestamp": "2025-12-23T11:34:46.979443+00:00", "meta": {"OBJECT_NAME": "1998-067XS", "OBJECT_ID": "1998-067XS", "EPOCH": "2025-12-22T11:01:48.942336", "MEAN_MOTION": 15.51071617, "ECCENTRICITY": 0.00028954, "INCLINATION": 51.6319, "RA_OF_ASC_NODE": 94.197, "ARG_OF_PERICENTER": 250.8689, "MEAN_ANOMALY": 109.1987, "EPHEMERIS_TYPE": 0, "CLASSIFICATION_TYPE": "U", "NORAD_CAT_ID": 66906, "ELEMENT_SET_NO": 999, "REV_AT_EPOCH": 312, "BSTAR": 0.00051361561, "MEAN_MOTION_DOT": 0.00030106, "MEAN_MOTION_DDOT": 0}, "tle": {"line1": "1 66906U 98067XS  25356.45959424  .00030106  00000+0  51362-3 0  9999", "line2": "2 66906  51.6319  94.1970 0002895 250.8689 109.1987 15.51071617  3121"}}, "geometry": {"type": "Point", "coordinates": [57.82477587074458, -33.24969460557452]}}, {"type": "Feature", "properties": {"norad_id": 66907, "name": "1998-067XT", "group": "stations", "lat": 14.972091707117247, "lon": 101.21767365976707, "alt_km": 407.2627226992945, "timestamp": "2025-12-23T11:34:46.979453+00:00", "meta": {"OBJECT_NAME": "1998-067XT", "OBJECT_ID": "1998-067XT", "EPOCH": "2025-12-22T07:41:32.890848", "MEAN_MOTION": 15.52583192, "ECCENTRICITY": 0.00038425, "INCLINATION": 51.6311, "RA_OF_ASC_NODE": 94.7687, "ARG_OF_PERICENTER": 286.1212, "MEAN_ANOMALY": 73.9355, "EPHEMERIS_TYPE": 0, "CLASSIFICATION_TYPE": "U", "NORAD_CAT_ID": 66907, "ELEMENT_SET_NO": 999, "REV_AT_EPOCH": 310, "BSTAR": 0.0011084243, "MEAN_MOTION_DOT": 0.00069527, "MEAN_MOTION_DDOT": 0}, "tle": {"line1": "1 66907U 98067XT  25356.32051957  .00069527  00000+0  11084-2 0  9995", "line2": "2 66907  51.6311  94.7687 0003842 286.1212  73.9355 15.52583192  3104"}}, "geometry": {"type": "Point", "coordinates": [101.21767365976707, 14.972091707117247]}}, {"type": "Feature", "properties": {"norad_id": 66908, "name": "1998-067XU", "group": "stations", "lat": 19.15088438424929, "lon": 104.94336478866472, "alt_km": 406.73891350760096, "timestamp": "2025-12-23T11:34:46.979462+00:00", "meta": {"OBJECT_NAME": "1998-067XU", "OBJECT_ID": "1998-067XU", "EPOCH": "2025-12-22T12:18:16.541280", "MEAN_MOTION": 15.52707663, "ECCENTRICITY": 0.00038713, "INCLINATION": 51.631, "RA_OF_ASC_NODE": 93.8007, "ARG_OF_PERICENTER": 283.9304, "MEAN_ANOMALY": 76.1255, "EPHEMERIS_TYPE": 0, "CLASSIFICATION_TYPE": "U", "NORAD_CAT_ID": 66908, "ELEMENT_SET_NO": 999, "REV_AT_EPOCH": 313, "BSTAR": 0.0010107547, "MEAN_MOTION_DOT": 0.00063598, "MEAN_MOTION_DDOT": 0}, "tle": {"line1": "1 66908U 98067XU  25356.51269145  .00063598  00000+0  10108-2 0  9995", "line2": "2 66908  51.6310  93.8007 0003871 283.9304  76.1255 15.52707663  3137"}}, "geometry": {"type": "Point", "coordinates": [104.94336478866472, 19.15088438424929]}}, {"type": "Feature", "properties": {"norad_id": 66909, "name": "SILVERSAT", "group": "stations", "lat": 24.86681869378045, "lon": 110.50125541312418, "alt_km": 405.3759366107179, "timestamp": "2025-12-23T11:34:46.979472+00:00", "meta": {"OBJECT_NAME": "SILVERSAT", "OBJECT_ID": "1998-067XV", "EPOCH": "2025-12-22T12:16:28.422912", "MEAN_MOTION": 15.52898333, "ECCENTRICITY": 0.0003866, "INCLINATION": 51.6306, "RA_OF_ASC_NODE": 93.7929, "ARG_OF_PERICENTER": 288.2093, "MEAN_ANOMALY": 71.8476, "EPHEMERIS_TYPE": 0, "CLASSIFICATION_TYPE": "U", "NORAD_CAT_ID": 66909, "ELEMENT_SET_NO": 999, "REV_AT_EPOCH": 313, "BSTAR": 0.0011325313, "MEAN_MOTION_DOT": 0.00071888, "MEAN_MOTION_DDOT": 0}, "tle": {"line1": "1 66909U 98067XV  25356.51144008  .00071888  00000+0  11325-2 0  9999", "line2": "2 66909  51.6306  93.7929 0003866 288.2093  71.8476 15.52898333  3134"}}, "geometry": {"type": "Point", "coordinates": [110.50125541312418, 24.86681869378045]}}, {"type": "Feature", "properties": {"norad_id": 66910, "name": "1998-067XW", "group": "stations", "lat": 31.710963374168216, "lon": 118.2474178028681, "alt_km": 405.9399871619653, "timestamp": "2025-12-23T11:34:46.979481+00:00", "meta": {"OBJECT_NAME": "1998-067XW", "OBJECT_ID": "1998-067XW", "EPOCH": "2025-12-22T12:13:56.337312", "MEAN_MOTION": 15.52855241, "ECCENTRICITY": 0.00039884, "INCLINATION": 51.6304, "RA_OF_ASC_NODE": 93.7808, "ARG_OF_PERICENTER": 260.6768, "MEAN_ANOMALY": 99.3771, "EPHEMERIS_TYPE": 0, "CLASSIFICATION_TYPE": "U", "NORAD_CAT_ID": 66910, "ELEMENT_SET_NO": 999, "REV_AT_EPOCH": 313, "BSTAR": 0.0010313397, "MEAN_MOTION_DOT": 0.00065266, "MEAN_MOTION_DDOT": 0}, "tle": {"line1": "1 66910U 98067XW  25356.50967983  .00065266  00000+0  10313-2 0  9994", "line2": "2 66910  51.6304  93.7808 0003988 260.6768  99.3771 15.52855241  3132"}}, "geometry": {"type": "Point", "coordinates": [118.2474178028681, 31.710963374168216]}}]}